[{"OBJECT_NAME":"STARLINK-31502","OBJECT_ID":"2024-056F","EPOCH":"2026-03-08T19:28:12.076896","MEAN_MOTION":15.27529889,"ECCENTRICITY":0.00018418,"INCLINATION":43.0012,"RA_OF_ASC_NODE":228.4246,"ARG_OF_PERICENTER":269.2505,"MEAN_ANOMALY":90.8136,"EPHEMERIS_TYPE":0,"CLASSIFICATION_TYPE":"U","NORAD_CAT_ID":59301,"ELEMENT_SET_NO":999,"REV_AT_EPOCH":11110,"BSTAR":-0.00019548807,"MEAN_MOTION_DOT":-5.629e-5,"MEAN_MOTION_DDOT":0},{"OBJECT_NAME":"CZ-6A R\/B","OBJECT_ID":"2023-168B","EPOCH":"2026-03-09T21:13:08.722272","MEAN_MOTION":15.16100791,"ECCENTRICITY":0.00607667,"INCLINATION":97.7542,"RA_OF_ASC_NODE":104.7688,"ARG_OF_PERICENTER":339.2379,"MEAN_ANOMALY":20.6386,"EPHEMERIS_TYPE":0,"CLASSIFICATION_TYPE":"U","NORAD_CAT_ID":58200,"ELEMENT_SET_NO":999,"REV_AT_EPOCH":12979,"BSTAR":0.00029693841,"MEAN_MOTION_DOT":5.919e-5,"MEAN_MOTION_DDOT":0}]
